"","title","phonenum","address","long","lat"
"1","역삼아레나빌딩","02-758-8370","서울특별시 중랑구 동일로 932, 묵동이마트 B1층 (묵동)","127.043069","37.501087"
"2","논현역사거리","02-758-8370","서울특별시 중랑구 동일로 932, 묵동이마트 B1층 (묵동)","127.022223","37.510178"
"3","국기원사거리","02-758-8370","서울특별시 중랑구 동일로 932, 묵동이마트 B1층 (묵동)","127.031495","37.499517"
"4","대치대원빌딩R","02-758-8370","서울특별시 중랑구 동일로 932, 묵동이마트 B1층 (묵동)","127.062583","37.494668"
"5","삼성역섬유센터R","02-758-8370","서울특별시 중랑구 동일로 932, 묵동이마트 B1층 (묵동)","127.060651","37.507750"
"6","압구정R","02-758-8370","서울특별시 중랑구 동일로 932, 묵동이마트 B1층 (묵동)","127.033061","37.5273669"
"7","수서역R","02-758-8370","서울특별시 중랑구 동일로 932, 묵동이마트 B1층 (묵동)","127.102650","37.488008"
"8","양재강남빌딩R","02-758-8370","서울특별시 중랑구 동일로 932, 묵동이마트 B1층 (묵동)","127.036685","37.485192"
"9","선릉동신빌딩R","02-758-8370","서울특별시 중랑구 동일로 932, 묵동이마트 B1층 (묵동)","127.050409","37.505321"
"10","봉은사로선정릉","02-758-8370","서울특별시 중랑구 동일로 932, 묵동이마트 B1층 (묵동)","127.048409","37.511293"
"11","강남오거리","02-758-8370","서울특별시 중랑구 동일로 932, 묵동이마트 B1층 (묵동)","127.026672","37.502117"
"12","스타필드코엑스몰R","02-758-8370","서울특별시 중랑구 동일로 932, 묵동이마트 B1층 (묵동)","127.061455","37.50999"
"13","강남구청정문","02-758-8370","서울특별시 중랑구 동일로 932, 묵동이마트 B1층 (묵동)","127.045995","37.518181"
"14","도곡공원","02-758-8370","서울특별시 중랑구 동일로 932, 묵동이마트 B1층 (묵동)","127.041309","37.492805"
"15","강남R","02-758-8370","서울특별시 중랑구 동일로 932, 묵동이마트 B1층 (묵동)","127.028439","37.497711"
"16","대치은마사거리","02-758-8370","서울특별시 중랑구 동일로 932, 묵동이마트 B1층 (묵동)","127.060172","37.498973"
"17","청담영동대로","02-758-8370","서울특별시 중랑구 동일로 932, 묵동이마트 B1층 (묵동)","127.056449","37.522156"
"18","압구정","02-758-8370","서울특별시 중랑구 동일로 932, 묵동이마트 B1층 (묵동)","127.029560","37.526283"
"19","신사가로수","02-758-8370","서울특별시 중랑구 동일로 932, 묵동이마트 B1층 (묵동)","127.022510","37.521852"
"20","청담스타R","02-758-8370","서울특별시 중랑구 동일로 932, 묵동이마트 B1층 (묵동)","127.041827","37.525216"
"21","강남우성","02-758-8370","서울특별시 중랑구 동일로 932, 묵동이마트 B1층 (묵동)","127.030910","37.492396"
"22","학동사거리","02-758-8370","서울특별시 중랑구 동일로 932, 묵동이마트 B1층 (묵동)","127.03795430000002","37.52236449999999"
"23","대치사거리","02-758-8370","서울특별시 중랑구 동일로 932, 묵동이마트 B1층 (묵동)","127.058817","37.503331"
"24","포스코사거리","02-758-8370","서울특별시 중랑구 동일로 932, 묵동이마트 B1층 (묵동)","127.05742710000004","37.5075307"
"25","을지병원사거리","02-758-8370","서울특별시 중랑구 동일로 932, 묵동이마트 B1층 (묵동)","127.0286446","37.5191632"
"26","신사역","02-758-8370","서울특별시 중랑구 동일로 932, 묵동이마트 B1층 (묵동)","127.0207428","37.5162021"
"27","도곡역","02-758-8370","서울특별시 중랑구 동일로 932, 묵동이마트 B1층 (묵동)","127.057398","37.492167"
"28","서울세관사거리","02-758-8370","서울특별시 중랑구 동일로 932, 묵동이마트 B1층 (묵동)","127.035653","37.514887"
"29","청담사거리","02-758-8370","서울특별시 중랑구 동일로 932, 묵동이마트 B1층 (묵동)","127.04686509999999","37.5236351"
"30","한티역","02-758-8370","서울특별시 중랑구 동일로 932, 묵동이마트 B1층 (묵동)","127.055055","37.496801"
"31","역삼초교사거리","02-758-8370","서울특별시 중랑구 동일로 932, 묵동이마트 B1층 (묵동)","127.03299730000003","37.4941059"
"32","코엑스몰","02-758-8370","서울특별시 중랑구 동일로 932, 묵동이마트 B1층 (묵동)","127.059024","37.511921"
"33","가로수길","02-758-8370","서울특별시 중랑구 동일로 932, 묵동이마트 B1층 (묵동)","127.02162499999997","37.5231593"
"34","역삼대로","02-758-8370","서울특별시 중랑구 동일로 932, 묵동이마트 B1층 (묵동)","127.039375","37.501623"
"35","역삼포스코","02-758-8370","서울특별시 중랑구 동일로 932, 묵동이마트 B1층 (묵동)","127.033582","37.499721"
"36","강남대로","02-758-8370","서울특별시 중랑구 동일로 932, 묵동이마트 B1층 (묵동)","127.025546","37.50314"
"37","청담","02-758-8370","서울특별시 중랑구 동일로 932, 묵동이마트 B1층 (묵동)","127.05155990000003","37.5243631"
"38","삼성도심공항","02-758-8370","서울특별시 중랑구 동일로 932, 묵동이마트 B1층 (묵동)","127.05791339999996","37.5097863"
"39","삼성교","02-758-8370","서울특별시 중랑구 동일로 932, 묵동이마트 B1층 (묵동)","127.06517","37.507794"
"40","학동역","02-758-8370","서울특별시 중랑구 동일로 932, 묵동이마트 B1층 (묵동)","127.0307302","37.51464884"
"41","대치","02-758-8370","서울특별시 중랑구 동일로 932, 묵동이마트 B1층 (묵동)","127.0622171","37.49966175"
"42","기술센터","02-758-8370","서울특별시 중랑구 동일로 932, 묵동이마트 B1층 (묵동)","127.0436409","37.50329211"
"43","SSG마켓도곡R","02-758-8370","서울특별시 중랑구 동일로 932, 묵동이마트 B1층 (묵동)","127.054895","37.490298"
"44","삼성","02-758-8370","서울특별시 중랑구 동일로 932, 묵동이마트 B1층 (묵동)","127.0555503","37.50703529"
"45","선릉세화빌딩","02-758-8370","서울특별시 중랑구 동일로 932, 묵동이마트 B1층 (묵동)","127.051196","37.50377562"
"46","압구정역","02-758-8370","서울특별시 중랑구 동일로 932, 묵동이마트 B1층 (묵동)","127.0281105","37.52674095"
"47","압구정로","02-758-8370","서울특별시 중랑구 동일로 932, 묵동이마트 B1층 (묵동)","127.0347174","37.52680046"
"48","구역삼사거리","02-758-8370","서울특별시 중랑구 동일로 932, 묵동이마트 B1층 (묵동)","127.0388645","37.49592355"
"49","큰길타워","02-758-8370","서울특별시 중랑구 동일로 932, 묵동이마트 B1층 (묵동)","127.0407","37.50236693"
"50","강남구청역","02-758-8370","서울특별시 중랑구 동일로 932, 묵동이마트 B1층 (묵동)","127.04124330000002","37.5165849"
"51","대치역","02-758-8370","서울특별시 중랑구 동일로 932, 묵동이마트 B1층 (묵동)","127.061874","37.493554"
"52","포이","02-758-8370","서울특별시 중랑구 동일로 932, 묵동이마트 B1층 (묵동)","127.0451411","37.47781106"
"53","아크플레이스","02-758-8370","서울특별시 중랑구 동일로 932, 묵동이마트 B1층 (묵동)","127.0349084","37.49971982"
"54","학여울역","02-758-8370","서울특별시 중랑구 동일로 932, 묵동이마트 B1층 (묵동)","127.0684943","37.49803646"
"55","선정릉역","02-758-8370","서울특별시 중랑구 동일로 932, 묵동이마트 B1층 (묵동)","127.04455970000003","37.51075489999999"
"56","삼성현대힐","02-758-8370","서울특별시 중랑구 동일로 932, 묵동이마트 B1층 (묵동)","127.0527183","37.51354184"
"57","GS타워","02-758-8370","서울특별시 중랑구 동일로 932, 묵동이마트 B1층 (묵동)","127.03727759999992","37.5018592"
"58","압구정미소","02-758-8370","서울특별시 중랑구 동일로 932, 묵동이마트 B1층 (묵동)","127.027915","37.52405601"
"59","선릉역","02-758-8370","서울특별시 중랑구 동일로 932, 묵동이마트 B1층 (묵동)","127.0485135","37.50393894"
"60","수서","02-758-8370","서울특별시 중랑구 동일로 932, 묵동이마트 B1층 (묵동)","127.1017508","37.48801132"
"61","코엑스사거리","02-758-8370","서울특별시 중랑구 동일로 932, 묵동이마트 B1층 (묵동)","127.060109","37.515351"
"62","역삼럭키","02-758-8370","서울특별시 중랑구 동일로 932, 묵동이마트 B1층 (묵동)","127.039389","37.492209"
"63","차병원사거리","02-758-8370","서울특별시 중랑구 동일로 932, 묵동이마트 B1층 (묵동)","127.035373","37.508032"
"64","청담공원","02-758-8370","서울특별시 중랑구 동일로 932, 묵동이마트 B1층 (묵동)","127.05143870000006","37.5186549"
"65","신압구정","02-758-8370","서울특별시 중랑구 동일로 932, 묵동이마트 B1층 (묵동)","127.036441","37.528115"
"66","아크로힐스논현","02-758-8370","서울특별시 중랑구 동일로 932, 묵동이마트 B1층 (묵동)","127.0403869","37.50898041"
"67","뱅뱅사거리","02-758-8370","서울특별시 중랑구 동일로 932, 묵동이마트 B1층 (묵동)","127.032415","37.488585"
"68","강남비젼타워","02-758-8370","서울특별시 중랑구 동일로 932, 묵동이마트 B1층 (묵동)","127.02968850000002","37.4964557"
"69","역삼역","02-758-8370","서울특별시 중랑구 동일로 932, 묵동이마트 B1층 (묵동)","127.0351577","37.50080096"
"70","압구정로데오역","02-758-8370","서울특별시 중랑구 동일로 932, 묵동이마트 B1층 (묵동)","127.040437","37.526549"
"71","르네상스사거리","02-758-8370","서울특별시 중랑구 동일로 932, 묵동이마트 B1층 (묵동)","127.044308","37.502721"
"72","포스코","02-758-8370","서울특별시 중랑구 동일로 932, 묵동이마트 B1층 (묵동)","127.057966","37.50576"
"73","선릉로","02-758-8370","서울특별시 중랑구 동일로 932, 묵동이마트 B1층 (묵동)","127.046577","37.505053"
"74","삼성역","02-758-8370","서울특별시 중랑구 동일로 932, 묵동이마트 B1층 (묵동)","127.063864","37.510015"
"75","논현힐탑","02-758-8370","서울특별시 중랑구 동일로 932, 묵동이마트 B1층 (묵동)","127.03226199999994","37.5115577"
"76","도산가로수길","02-758-8370","서울특별시 중랑구 동일로 932, 묵동이마트 B1층 (묵동)","127.02329570000006","37.51736229999999"
"77","미아뉴타운","02-758-8370","서울특별시 중랑구 동일로 932, 묵동이마트 B1층 (묵동)","127.021072","37.618319"
"78","강북구청사거리","02-758-8370","서울특별시 중랑구 동일로 932, 묵동이마트 B1층 (묵동)","127.0273766","37.6400354"
"79","미아사거리역","02-758-8370","서울특별시 중랑구 동일로 932, 묵동이마트 B1층 (묵동)","127.0306971","37.611809"
"80","수유역","02-758-8370","서울특별시 중랑구 동일로 932, 묵동이마트 B1층 (묵동)","127.02613500000007","37.6380167"
"81","미아역","02-758-8370","서울특별시 중랑구 동일로 932, 묵동이마트 B1층 (묵동)","127.026578","37.626148"
"82","발산역사거리","02-758-8370","서울특별시 중랑구 동일로 932, 묵동이마트 B1층 (묵동)"," 126.835096","37.558509"
"83","우장산역","02-758-8370","서울특별시 중랑구 동일로 932, 묵동이마트 B1층 (묵동)","126.835984","37.549501"
"84","마곡사이언스타워R","02-758-8370","서울특별시 중랑구 동일로 932, 묵동이마트 B1층 (묵동)","126.833887","37.5605261"
"85","방화DT","02-758-8370","서울특별시 중랑구 동일로 932, 묵동이마트 B1층 (묵동)","126.816415","37.574339"
"86","마곡나루역","02-758-8370","서울특별시 중랑구 동일로 932, 묵동이마트 B1층 (묵동)","126.82614","37.56813"
"87","마곡GMG","02-758-8370","서울특별시 중랑구 동일로 932, 묵동이마트 B1층 (묵동)","126.829667","37.560487"
"88","가양역","02-758-8370","서울특별시 중랑구 동일로 932, 묵동이마트 B1층 (묵동)","126.853327","37.561640"
"89","화곡DT","02-758-8370","서울특별시 중랑구 동일로 932, 묵동이마트 B1층 (묵동)","126.863232","37.535149"
"90","양천향교역","02-758-8370","서울특별시 중랑구 동일로 932, 묵동이마트 B1층 (묵동)","126.840731","37.566964"
"91","화곡동","02-758-8370","서울특별시 중랑구 동일로 932, 묵동이마트 B1층 (묵동)","126.8372413","37.5405115"
"92","등촌","02-758-8370","서울특별시 중랑구 동일로 932, 묵동이마트 B1층 (묵동)","126.84433919999992","37.5582043"
"93","염창역","02-758-8370","서울특별시 중랑구 동일로 932, 묵동이마트 B1층 (묵동)","126.874436","37.547359"
"94","발산역","02-758-8370","서울특별시 중랑구 동일로 932, 묵동이마트 B1층 (묵동)","126.839279","37.56033"
"95","가양이마트","02-758-8370","서울특별시 중랑구 동일로 932, 묵동이마트 B1층 (묵동)","126.86229779999996","37.5578966"
"96","까치산역","02-758-8370","서울특별시 중랑구 동일로 932, 묵동이마트 B1층 (묵동)","126.846077","37.532303"
"97","낙성대역","02-758-8370","서울특별시 중랑구 동일로 932, 묵동이마트 B1층 (묵동)","126.961246","37.477980"
"98","관악서울대입구R","02-758-8370","서울특별시 중랑구 동일로 932, 묵동이마트 B1층 (묵동)","126.952780","37.479343"
"99","신림DT","02-758-8370","서울특별시 중랑구 동일로 932, 묵동이마트 B1층 (묵동)","126.908407","37.480935"
"100","서울대역","02-758-8370","서울특별시 중랑구 동일로 932, 묵동이마트 B1층 (묵동)","126.952200","37.481599"
"101","낙성대DT","02-758-8370","서울특별시 중랑구 동일로 932, 묵동이마트 B1층 (묵동)","126.965005","37.476169"
"102","사당","02-758-8370","서울특별시 중랑구 동일로 932, 묵동이마트 B1층 (묵동)","126.980997","37.47601"
"103","보라매대교","02-758-8370","서울특별시 중랑구 동일로 932, 묵동이마트 B1층 (묵동)","126.925432","37.491449"
"104","신림사거리","02-758-8370","서울특별시 중랑구 동일로 932, 묵동이마트 B1층 (묵동)","126.930467","37.484768"
"105","신림","02-758-8370","서울특별시 중랑구 동일로 932, 묵동이마트 B1층 (묵동)","126.9291602","37.48609493"
"106","신림역포도몰","02-758-8370","서울특별시 중랑구 동일로 932, 묵동이마트 B1층 (묵동)","126.9301799","37.48385383"
"107","서울대입구역","02-758-8370","서울특별시 중랑구 동일로 932, 묵동이마트 B1층 (묵동)","126.951324","37.48118"
"108","건국대","02-758-8370","서울특별시 중랑구 동일로 932, 묵동이마트 B1층 (묵동)","127.0711244","37.5415592"
"109","어린이대공원역","02-758-8370","서울특별시 중랑구 동일로 932, 묵동이마트 B1층 (묵동)","127.076404","37.551946"
"110","아차산역","02-758-8370","서울특별시 중랑구 동일로 932, 묵동이마트 B1층 (묵동)","127.0898757","37.5505388"
"111","올림픽대교북단","02-758-8370","서울특별시 중랑구 동일로 932, 묵동이마트 B1층 (묵동)","127.095240","37.541129"
"112","구의DT","02-758-8370","서울특별시 중랑구 동일로 932, 묵동이마트 B1층 (묵동)","127.0871587","37.5451984"
"113","자양사거리","02-758-8370","서울특별시 중랑구 동일로 932, 묵동이마트 B1층 (묵동)","127.0825821","37.5371158"
"114","군자역","02-758-8370","서울특별시 중랑구 동일로 932, 묵동이마트 B1층 (묵동)","127.078916","37.556703"
"115","광나루","02-758-8370","서울특별시 중랑구 동일로 932, 묵동이마트 B1층 (묵동)","127.105934","37.547442"
"116","건대스타시티","02-758-8370","서울특별시 중랑구 동일로 932, 묵동이마트 B1층 (묵동)","127.0725451","37.53780432"
"117","자양","02-758-8370","서울특별시 중랑구 동일로 932, 묵동이마트 B1층 (묵동)","127.06914619999998","37.5354769"
"118","강변역","02-758-8370","서울특별시 중랑구 동일로 932, 묵동이마트 B1층 (묵동)","127.093086","37.536155"
"119","건대입구","02-758-8370","서울특별시 중랑구 동일로 932, 묵동이마트 B1층 (묵동)","127.07072249999999","37.5406604"
"120","구의역","02-758-8370","서울특별시 중랑구 동일로 932, 묵동이마트 B1층 (묵동)","127.084015","37.53698"
"121","광장","02-758-8370","서울특별시 중랑구 동일로 932, 묵동이마트 B1층 (묵동)","127.099789","37.542857"
"122","건국클래식","02-758-8370","서울특별시 중랑구 동일로 932, 묵동이마트 B1층 (묵동)","127.070709","37.53838"
"123","가산에스케이","02-758-8370","서울특별시 중랑구 동일로 932, 묵동이마트 B1층 (묵동)","126.8805702","37.48061318"
"124","독산사거리","02-758-8370","서울특별시 중랑구 동일로 932, 묵동이마트 B1층 (묵동)","126.898775","37.471511"
"125","금천시흥","02-758-8370","서울특별시 중랑구 동일로 932, 묵동이마트 B1층 (묵동)","126.903183","37.448624"
"126","가산디지털단지역","02-758-8370","서울특별시 중랑구 동일로 932, 묵동이마트 B1층 (묵동)","126.883779","37.481324"
"127","금천독산","02-758-8370","서울특별시 중랑구 동일로 932, 묵동이마트 B1층 (묵동)","126.895246","37.46914"
"128","가산디지털","02-758-8370","서울특별시 중랑구 동일로 932, 묵동이마트 B1층 (묵동)","126.88249969999992","37.4798346"
"129","W-Mall","02-758-8370","서울특별시 중랑구 동일로 932, 묵동이마트 B1층 (묵동)","126.8876908","37.47730499"
"130","마리오아울렛","02-758-8370","서울특별시 중랑구 동일로 932, 묵동이마트 B1층 (묵동)","126.885076","37.478701"
"131","가산브이타워","02-758-8370","서울특별시 중랑구 동일로 932, 묵동이마트 B1층 (묵동)","126.883683","37.477221"
"132","가산그레이트","02-758-8370","서울특별시 중랑구 동일로 932, 묵동이마트 B1층 (묵동)","126.88747680000006","37.4794491"
"133","월계트레이더스","02-758-8370","서울특별시 중랑구 동일로 932, 묵동이마트 B1층 (묵동)","127.06149779999998","37.6277053"
"134","상계초교사거리","02-758-8370","서울특별시 중랑구 동일로 932, 묵동이마트 B1층 (묵동)","127.066442 ","37.656776"
"135","공릉DT","02-758-8370","서울특별시 중랑구 동일로 932, 묵동이마트 B1층 (묵동)","127.0743116","37.6206884"
"136","노원마들역","02-758-8370","서울특별시 중랑구 동일로 932, 묵동이마트 B1층 (묵동)","127.058008","37.660941"
"137","공릉역","02-758-8370","서울특별시 중랑구 동일로 932, 묵동이마트 B1층 (묵동)","127.072252","37.626337"
"138","서울여대","02-758-8370","서울특별시 중랑구 동일로 932, 묵동이마트 B1층 (묵동)","127.093084","37.626163"
"139","은행사거리","02-758-8370","서울특별시 중랑구 동일로 932, 묵동이마트 B1층 (묵동)","127.0759861","37.65048737"
"140","노원KT","02-758-8370","서울특별시 중랑구 동일로 932, 묵동이마트 B1층 (묵동)","127.063617","37.654562"
"141","광운대","02-758-8370","서울특별시 중랑구 동일로 932, 묵동이마트 B1층 (묵동)","127.06070090000003","37.6231479"
"142","중계역","02-758-8370","서울특별시 중랑구 동일로 932, 묵동이마트 B1층 (묵동)","127.062244","37.64817"
"143","노원역","02-758-8370","서울특별시 중랑구 동일로 932, 묵동이마트 B1층 (묵동)","127.060034","37.654751"
"144","월계이마트","02-758-8370","서울특별시 중랑구 동일로 932, 묵동이마트 B1층 (묵동)","127.062094","37.627155"
"145","창동이마트","02-758-8370","서울특별시 중랑구 동일로 932, 묵동이마트 B1층 (묵동)","127.046869","37.651645"
"146","쌍문역","02-758-8370","서울특별시 중랑구 동일로 932, 묵동이마트 B1층 (묵동)","127.034783","37.648456"
"147","노량진동","02-758-8370","서울특별시 중랑구 동일로 932, 묵동이마트 B1층 (묵동)","126.946537","37.513068"
"148","남성역","02-758-8370","서울특별시 중랑구 동일로 932, 묵동이마트 B1층 (묵동)","126.9725739","37.4841198"
"149","보라매공원R","02-758-8370","서울특별시 중랑구 동일로 932, 묵동이마트 B1층 (묵동)","126.92334570798292","37.49226212712864"
"150","이수자이","02-758-8370","서울특별시 중랑구 동일로 932, 묵동이마트 B1층 (묵동)","126.980047","37.484414"
"151","노량진역","02-758-8370","서울특별시 중랑구 동일로 932, 묵동이마트 B1층 (묵동)","126.940879","37.513390"
"152","신대방삼거리역","02-758-8370","서울특별시 중랑구 동일로 932, 묵동이마트 B1층 (묵동)","126.931766","37.499914"
"153","중앙대","02-758-8370","서울특별시 중랑구 동일로 932, 묵동이마트 B1층 (묵동)","126.958125","37.506933"
"154","숭실대입구역","02-758-8370","서울특별시 중랑구 동일로 932, 묵동이마트 B1층 (묵동)","126.95271230000003","37.4968346"
"155","숭실대","02-758-8370","서울특별시 중랑구 동일로 932, 묵동이마트 B1층 (묵동)","126.9548891","37.49538073"
"156","사당역","02-758-8370","서울특별시 중랑구 동일로 932, 묵동이마트 B1층 (묵동)","126.9813456","37.47849216"
"157","서강대프라자","02-758-8370","서울특별시 중랑구 동일로 932, 묵동이마트 B1층 (묵동)","126.943096","37.551073"
"158","상암YTN","02-758-8370","서울특별시 중랑구 동일로 932, 묵동이마트 B1층 (묵동)","126.892315","37.579183"
"159","마포용강동","02-758-8370","서울특별시 중랑구 동일로 932, 묵동이마트 B1층 (묵동)","126.942209","37.541186"
"160","홍대입구역사거리R","02-758-8370","서울특별시 중랑구 동일로 932, 묵동이마트 B1층 (묵동)","126.92036","37.554636"
"161","마포경찰서후문","02-758-8370","서울특별시 중랑구 동일로 932, 묵동이마트 B1층 (묵동)","126.953432","37.550800"
"162","공덕","02-758-8370","서울특별시 중랑구 동일로 932, 묵동이마트 B1층 (묵동)","126.952956","37.545913"
"163","합정폴리스R","02-758-8370","서울특별시 중랑구 동일로 932, 묵동이마트 B1층 (묵동)","126.9134","37.5509"
"164","홍대공항철도역","02-758-8370","서울특별시 중랑구 동일로 932, 묵동이마트 B1층 (묵동)","126.925146","37.557491"
"165","마포염리","02-758-8370","서울특별시 중랑구 동일로 932, 묵동이마트 B1층 (묵동)","126.947680","37.543876"
"166","서강광흥창역","02-758-8370","서울특별시 중랑구 동일로 932, 묵동이마트 B1층 (묵동)","126.931661","37.549377"
"167","합정","02-758-8370","서울특별시 중랑구 동일로 932, 묵동이마트 B1층 (묵동)","126.912999","37.549630"
"168","서강대흥역","02-758-8370","서울특별시 중랑구 동일로 932, 묵동이마트 B1층 (묵동)","126.941576","37.548178"
"169","서교동사거리","02-758-8370","서울특별시 중랑구 동일로 932, 묵동이마트 B1층 (묵동)","126.918564","37.553376"
"170","상암사보이시티","02-758-8370","서울특별시 중랑구 동일로 932, 묵동이마트 B1층 (묵동)","126.888983","37.581470"
"171","신촌오거리","02-758-8370","서울특별시 중랑구 동일로 932, 묵동이마트 B1층 (묵동)","126.934694","37.555137"
"172","상암디지털큐브","02-758-8370","서울특별시 중랑구 동일로 932, 묵동이마트 B1층 (묵동)","126.8892477","37.5763132"
"173","상수역","02-758-8370","서울특별시 중랑구 동일로 932, 묵동이마트 B1층 (묵동)","126.92321579999998","37.5474817"
"174","공덕오거리","02-758-8370","서울특별시 중랑구 동일로 932, 묵동이마트 B1층 (묵동)","126.95057730000008","37.5424641"
"175","서교","02-758-8370","서울특별시 중랑구 동일로 932, 묵동이마트 B1층 (묵동)","126.9169208","37.551385"
"176","서강대","02-758-8370","서울특별시 중랑구 동일로 932, 묵동이마트 B1층 (묵동)","126.9378262","37.5524584"
"177","상암MBC","02-758-8370","서울특별시 중랑구 동일로 932, 묵동이마트 B1층 (묵동)","126.890908","37.581297"
"178","홍대역","02-758-8370","서울특별시 중랑구 동일로 932, 묵동이마트 B1층 (묵동)","126.923654","37.557175"
"179","동교","02-758-8370","서울특별시 중랑구 동일로 932, 묵동이마트 B1층 (묵동)","126.919819","37.556928"
"180","애오개역","02-758-8370","서울특별시 중랑구 동일로 932, 묵동이마트 B1층 (묵동)","126.9555203","37.55218737"
"181","홍대갤러리","02-758-8370","서울특별시 중랑구 동일로 932, 묵동이마트 B1층 (묵동)","126.9248279","37.55328184"
"182","상암DMC","02-758-8370","서울특별시 중랑구 동일로 932, 묵동이마트 B1층 (묵동)","126.890684","37.577623"
"183","마포일진빌딩","02-758-8370","서울특별시 중랑구 동일로 932, 묵동이마트 B1층 (묵동)","126.9463168","37.54043451"
"184","마포아크로","02-758-8370","서울특별시 중랑구 동일로 932, 묵동이마트 B1층 (묵동)","126.948819","37.54145556"
"185","홍대삼거리","02-758-8370","서울특별시 중랑구 동일로 932, 묵동이마트 B1층 (묵동)","126.923179","37.550266"
"186","망원역","02-758-8370","서울특별시 중랑구 동일로 932, 묵동이마트 B1층 (묵동)","126.910637","37.555829"
"187","마포이마트","02-758-8370","서울특별시 중랑구 동일로 932, 묵동이마트 B1층 (묵동)","126.953341","37.542421"
"188","합정메세나몰","02-758-8370","서울특별시 중랑구 동일로 932, 묵동이마트 B1층 (묵동)","126.913848","37.551004"
"189","가재울뉴타운","02-758-8370","서울특별시 중랑구 동일로 932, 묵동이마트 B1층 (묵동)","126.9164441","37.5749841"
"190","신촌역","02-758-8370","서울특별시 중랑구 동일로 932, 묵동이마트 B1층 (묵동)","126.934673","37.556167"
"191","연희동","02-758-8370","서울특별시 중랑구 동일로 932, 묵동이마트 B1층 (묵동)","126.930475","37.566702"
"192","아현역","02-758-8370","서울특별시 중랑구 동일로 932, 묵동이마트 B1층 (묵동)","126.956058","37.557820"
"193","홍제역","02-758-8370","서울특별시 중랑구 동일로 932, 묵동이마트 B1층 (묵동)","126.943864","37.588658"
"194","연세백양로","02-758-8370","서울특별시 중랑구 동일로 932, 묵동이마트 B1층 (묵동)","126.937529","37.562644"
"195","명지대","02-758-8370","서울특별시 중랑구 동일로 932, 묵동이마트 B1층 (묵동)","126.92232330000001","37.5782618"
"196","연희DT","02-758-8370","서울특별시 중랑구 동일로 932, 묵동이마트 B1층 (묵동)","126.9339777","37.5702143"
"197","경기대","02-758-8370","서울특별시 중랑구 동일로 932, 묵동이마트 B1층 (묵동)","126.9646045","37.56367995"
"198","신촌대로","02-758-8370","서울특별시 중랑구 동일로 932, 묵동이마트 B1층 (묵동)","126.9392796","37.55624543"
"199","신촌","02-758-8370","서울특별시 중랑구 동일로 932, 묵동이마트 B1층 (묵동)","126.9371155","37.55648577"
"200","이대R","02-758-8370","서울특별시 중랑구 동일로 932, 묵동이마트 B1층 (묵동)","126.9459643","37.55848315"
"201","연세종합관","02-758-8370","서울특별시 중랑구 동일로 932, 묵동이마트 B1층 (묵동)","126.9414708","37.56177145"
"202","이대ECC","02-758-8370","서울특별시 중랑구 동일로 932, 묵동이마트 B1층 (묵동)","126.947350","37.561631"
"203","연대","02-758-8370","서울특별시 중랑구 동일로 932, 묵동이마트 B1층 (묵동)","126.936727","37.558706"
"204","신촌아트레온","02-758-8370","서울특별시 중랑구 동일로 932, 묵동이마트 B1층 (묵동)","126.940238","37.556505"
"205","충정로역","02-758-8370","서울특별시 중랑구 동일로 932, 묵동이마트 B1층 (묵동)","126.963219","37.56137"
"206","연대동문","02-758-8370","서울특별시 중랑구 동일로 932, 묵동이마트 B1층 (묵동)","126.946273","37.566385"
"207","신촌명물거리","02-758-8370","서울특별시 중랑구 동일로 932, 묵동이마트 B1층 (묵동)","126.938095","37.557796"
"208","충정타워","02-758-8370","서울특별시 중랑구 동일로 932, 묵동이마트 B1층 (묵동)","126.964110","37.559869"
"209","방배로","02-758-8370","서울특별시 중랑구 동일로 932, 묵동이마트 B1층 (묵동)","126.9994968","37.4793434"
"210","강남교보타워R","02-758-8370","서울특별시 중랑구 동일로 932, 묵동이마트 B1층 (묵동)","127.024075","37.503789"
"211","방배다이치빌딩","02-758-8370","서울특별시 중랑구 동일로 932, 묵동이마트 B1층 (묵동)","126.995872","37.484329"
"212","센트럴F1","02-758-8370","서울특별시 중랑구 동일로 932, 묵동이마트 B1층 (묵동)","127.004395","37.505148"
"213","서초역이화빌딩","02-758-8370","서울특별시 중랑구 동일로 932, 묵동이마트 B1층 (묵동)","127.009126","37.487931"
"214","서초구청","02-758-8370","서울특별시 중랑구 동일로 932, 묵동이마트 B1층 (묵동)","127.030103","37.484206"
"215","서초우성사거리","02-758-8370","서울특별시 중랑구 동일로 932, 묵동이마트 B1층 (묵동)","127.029430","37.493545"
"216","이수역사거리","02-758-8370","서울특별시 중랑구 동일로 932, 묵동이마트 B1층 (묵동)","126.983027","37.485850"
"217","강남대로신사","02-758-8370","서울특별시 중랑구 동일로 932, 묵동이마트 B1층 (묵동)","127.019469","37.514890"
"218","서울고속터미널","02-758-8370","서울특별시 중랑구 동일로 932, 묵동이마트 B1층 (묵동)","127.005648","37.504406"
"219","강남대로논현R","02-758-8370","서울특별시 중랑구 동일로 932, 묵동이마트 B1층 (묵동)","127.022568","37.507413"
"220","방배","02-758-8370","서울특별시 중랑구 동일로 932, 묵동이마트 B1층 (묵동)","126.99049739999998","37.491914"
"221","방배카페거리","02-758-8370","서울특별시 중랑구 동일로 932, 묵동이마트 B1층 (묵동)","126.9865297","37.4934767"
"222","서초법원","02-758-8370","서울특별시 중랑구 동일로 932, 묵동이마트 B1층 (묵동)","127.011875","37.492970"
"223","청계산입구역","02-758-8370","서울특별시 중랑구 동일로 932, 묵동이마트 B1층 (묵동)","127.056250","37.447323"
"224","사당로데오","02-758-8370","서울특별시 중랑구 동일로 932, 묵동이마트 B1층 (묵동)","126.98216049999996","37.4772752"
"225","파미에파크R","02-758-8370","서울특별시 중랑구 동일로 932, 묵동이마트 B1층 (묵동)","127.004362","37.5030521"
"226","교대역","02-758-8370","서울특별시 중랑구 동일로 932, 묵동이마트 B1층 (묵동)","127.01394","37.494207"
"227","양재역","02-758-8370","서울특별시 중랑구 동일로 932, 묵동이마트 B1층 (묵동)","127.0367682","37.4820475"
"228","논현역","02-758-8370","서울특별시 중랑구 동일로 932, 묵동이마트 B1층 (묵동)","127.0205875","37.5111983"
"229","이수역","02-758-8370","서울특별시 중랑구 동일로 932, 묵동이마트 B1층 (묵동)","126.98274029999993","37.4864664"
"230","내방역","02-758-8370","서울특별시 중랑구 동일로 932, 묵동이마트 B1층 (묵동)","126.992455","37.490004"
"231","서초파라곤","02-758-8370","서울특별시 중랑구 동일로 932, 묵동이마트 B1층 (묵동)","127.027422","37.494941"
"232","서울아트센터","02-758-8370","서울특별시 중랑구 동일로 932, 묵동이마트 B1층 (묵동)","127.012368","37.480866"
"233","서초중앙로","02-758-8370","서울특별시 중랑구 동일로 932, 묵동이마트 B1층 (묵동)","127.01152","37.501691"
"234","센트럴시티","02-758-8370","서울특별시 중랑구 동일로 932, 묵동이마트 B1층 (묵동)","127.004459","37.504707"
"235","강남삼성타운","02-758-8370","서울특별시 중랑구 동일로 932, 묵동이마트 B1층 (묵동)","127.0277144","37.49562035"
"236","방배역","02-758-8370","서울특별시 중랑구 동일로 932, 묵동이마트 B1층 (묵동)","126.9976438","37.48200755"
"237","반포역","02-758-8370","서울특별시 중랑구 동일로 932, 묵동이마트 B1층 (묵동)","127.011959","37.508589"
"238","남부터미널","02-758-8370","서울특별시 중랑구 동일로 932, 묵동이마트 B1층 (묵동)","127.0169464","37.48467334"
"239","뉴코아강남","02-758-8370","서울특별시 중랑구 동일로 932, 묵동이마트 B1층 (묵동)","127.0069582","37.51031339"
"240","강남2","02-758-8370","서울특별시 중랑구 동일로 932, 묵동이마트 B1층 (묵동)","127.02549090000002","37.5000875"
"241","교대","02-758-8370","서울특별시 중랑구 동일로 932, 묵동이마트 B1층 (묵동)","127.0142207","37.4923611"
"242","하이브랜드","02-758-8370","서울특별시 중랑구 동일로 932, 묵동이마트 B1층 (묵동)","127.0368447","37.46330766"
"243","신논현역","02-758-8370","서울특별시 중랑구 동일로 932, 묵동이마트 B1층 (묵동)","127.023636","37.50529"
"244","영동2교","02-758-8370","서울특별시 중랑구 동일로 932, 묵동이마트 B1층 (묵동)","127.0425748","37.48203954"
"245","남부터미널2","02-758-8370","서울특별시 중랑구 동일로 932, 묵동이마트 B1층 (묵동)","127.0142192","37.48436736"
"246","서래마을입구","02-758-8370","서울특별시 중랑구 동일로 932, 묵동이마트 B1층 (묵동)","126.9984801","37.49925284"
"247","몬테소리","02-758-8370","서울특별시 중랑구 동일로 932, 묵동이마트 B1층 (묵동)","127.026865","37.4982695"
"248","서초역","02-758-8370","서울특별시 중랑구 동일로 932, 묵동이마트 B1층 (묵동)","127.0086118","37.49067495"
"249","예술의전당","02-758-8370","서울특별시 중랑구 동일로 932, 묵동이마트 B1층 (묵동)","127.0134724","37.48115265"
"250","교대법원","02-758-8370","서울특별시 중랑구 동일로 932, 묵동이마트 B1층 (묵동)","127.013336","37.496329"
"251","강남GT타워","02-758-8370","서울특별시 중랑구 동일로 932, 묵동이마트 B1층 (묵동)","127.02583300000003","37.498056"
"252","서초동","02-758-8370","서울특별시 중랑구 동일로 932, 묵동이마트 B1층 (묵동)","127.021525","37.485941"
"253","서울교대","02-758-8370","서울특별시 중랑구 동일로 932, 묵동이마트 B1층 (묵동)","127.015134","37.487397"
"254","강남에비뉴","02-758-8370","서울특별시 중랑구 동일로 932, 묵동이마트 B1층 (묵동)","127.023894","37.5027"
"255","미아이마트","02-758-8370","서울특별시 중랑구 동일로 932, 묵동이마트 B1층 (묵동)","127.029921","37.610678"
"256","종암DT","02-758-8370","서울특별시 중랑구 동일로 932, 묵동이마트 B1층 (묵동)","127.0360401","37.5919525"
"257","미아","02-758-8370","서울특별시 중랑구 동일로 932, 묵동이마트 B1층 (묵동)","127.029303","37.607581"
"258","성신여대정문","02-758-8370","서울특별시 중랑구 동일로 932, 묵동이마트 B1층 (묵동)","127.018800","37.590910"
"259","종암","02-758-8370","서울특별시 중랑구 동일로 932, 묵동이마트 B1층 (묵동)","127.033847","37.601095"
"260","삼선교","02-758-8370","서울특별시 중랑구 동일로 932, 묵동이마트 B1층 (묵동)","127.00732070000003","37.588696"
"261","월곡역","02-758-8370","서울특별시 중랑구 동일로 932, 묵동이마트 B1층 (묵동)","127.040446","37.601718"
"262","고대","02-758-8370","서울특별시 중랑구 동일로 932, 묵동이마트 B1층 (묵동)","127.0297352","37.58397192"
"263","현대미아","02-758-8370","서울특별시 중랑구 동일로 932, 묵동이마트 B1층 (묵동)","127.0287483","37.60837822"
"264","성신여대","02-758-8370","서울특별시 중랑구 동일로 932, 묵동이마트 B1층 (묵동)","127.018379","37.593135"
"265","안암역","02-758-8370","서울특별시 중랑구 동일로 932, 묵동이마트 B1층 (묵동)","127.030556","37.586319"
"266","한성대입구역","02-758-8370","서울특별시 중랑구 동일로 932, 묵동이마트 B1층 (묵동)","127.004839","37.589054"
"267","송파나루역DT","02-758-8370","서울특별시 중랑구 동일로 932, 묵동이마트 B1층 (묵동)","127.1102658","37.510793"
"268","잠실시그마타워","02-758-8370","서울특별시 중랑구 동일로 932, 묵동이마트 B1층 (묵동)","127.102493","37.514567"
"269","문정법원로R","02-758-8370","서울특별시 중랑구 동일로 932, 묵동이마트 B1층 (묵동)","127.119164","37.487447"
"270","송파개롱역","02-758-8370","서울특별시 중랑구 동일로 932, 묵동이마트 B1층 (묵동)","127.13652","37.496956"
"271","문정하비오","02-758-8370","서울특별시 중랑구 동일로 932, 묵동이마트 B1층 (묵동)","127.123446","37.481925"
"272","문정역","02-758-8370","서울특별시 중랑구 동일로 932, 묵동이마트 B1층 (묵동)","127.122237","37.484813"
"273","잠실대교남단R","02-758-8370","서울특별시 중랑구 동일로 932, 묵동이마트 B1층 (묵동)","127.099006","37.515511"
"274","송파위례","02-758-8370","서울특별시 중랑구 동일로 932, 묵동이마트 B1층 (묵동)","127.144067","37.478264"
"275","송파방이DT","02-758-8370","서울특별시 중랑구 동일로 932, 묵동이마트 B1층 (묵동)","127.120495","37.506564"
"276","송파구청","02-758-8370","서울특별시 중랑구 동일로 932, 묵동이마트 B1층 (묵동)","127.107404","37.514573"
"277","올림픽평화의문","02-758-8370","서울특별시 중랑구 동일로 932, 묵동이마트 B1층 (묵동)","127.11648190000005","37.5156426"
"278","송파아이파크","02-758-8370","서울특별시 중랑구 동일로 932, 묵동이마트 B1층 (묵동)","127.122379","37.479892"
"279","송파사거리","02-758-8370","서울특별시 중랑구 동일로 932, 묵동이마트 B1층 (묵동)","127.1103904","37.5022788"
"280","석촌서호","02-758-8370","서울특별시 중랑구 동일로 932, 묵동이마트 B1층 (묵동)","127.0964684","37.5063929"
"281","문정로데오","02-758-8370","서울특별시 중랑구 동일로 932, 묵동이마트 B1층 (묵동)","127.1262696","37.491905"
"282","올림픽훼미리","02-758-8370","서울특별시 중랑구 동일로 932, 묵동이마트 B1층 (묵동)","127.116308","37.491626"
"283","올림픽공원남문","02-758-8370","서울특별시 중랑구 동일로 932, 묵동이마트 B1층 (묵동)","127.123113","37.5133"
"284","방이역","02-758-8370","서울특별시 중랑구 동일로 932, 묵동이마트 B1층 (묵동)","127.126569","37.508666"
"285","석촌호수","02-758-8370","서울특별시 중랑구 동일로 932, 묵동이마트 B1층 (묵동)","127.104993","37.509581"
"286","잠실푸르지오월드","02-758-8370","서울특별시 중랑구 동일로 932, 묵동이마트 B1층 (묵동)","127.103426","37.517649"
"287","잠실새내역","02-758-8370","서울특별시 중랑구 동일로 932, 묵동이마트 B1층 (묵동)","127.081062","37.511679"
"288","잠실역","02-758-8370","서울특별시 중랑구 동일로 932, 묵동이마트 B1층 (묵동)","127.099231","37.515272"
"289","갤러리아팰리스","02-758-8370","서울특별시 중랑구 동일로 932, 묵동이마트 B1층 (묵동)","127.0938059","37.51108365"
"290","아시아선수촌","02-758-8370","서울특별시 중랑구 동일로 932, 묵동이마트 B1층 (묵동)","127.0790472","37.51052862"
"291","올림픽아파트","02-758-8370","서울특별시 중랑구 동일로 932, 묵동이마트 B1층 (묵동)","127.133237","37.515315"
"292","가락본동","02-758-8370","서울특별시 중랑구 동일로 932, 묵동이마트 B1층 (묵동)","127.118785","37.494895"
"293","석촌역","02-758-8370","서울특별시 중랑구 동일로 932, 묵동이마트 B1층 (묵동)","127.10610769999994","37.5042626"
"294","가락시장역","02-758-8370","서울특별시 중랑구 동일로 932, 묵동이마트 B1층 (묵동)","127.121354","37.494299"
"295","가든파이브","02-758-8370","서울특별시 중랑구 동일로 932, 묵동이마트 B1층 (묵동)","127.11937030000001","37.4782316"
"296","목동파리공원","02-758-8370","서울특별시 중랑구 동일로 932, 묵동이마트 B1층 (묵동)","126.878852","37.535336"
"297","등촌역","02-758-8370","서울특별시 중랑구 동일로 932, 묵동이마트 B1층 (묵동)","126.868070","37.548884"
"298","목동행복한","02-758-8370","서울특별시 중랑구 동일로 932, 묵동이마트 B1층 (묵동)","126.876099","37.529147"
"299","신정DT","02-758-8370","서울특별시 중랑구 동일로 932, 묵동이마트 B1층 (묵동)","126.858865","37.521993"
"300","목동역","02-758-8370","서울특별시 중랑구 동일로 932, 묵동이마트 B1층 (묵동)","126.863986","37.526684"
"301","목동오목로","02-758-8370","서울특별시 중랑구 동일로 932, 묵동이마트 B1층 (묵동)","126.868438","37.525923"
"302","목동8단지","02-758-8370","서울특별시 중랑구 동일로 932, 묵동이마트 B1층 (묵동)","126.868841","37.520518"
"303","오목교역","02-758-8370","서울특별시 중랑구 동일로 932, 묵동이마트 B1층 (묵동)","126.87652120000007","37.5235882"
"304","신월IC DT","02-758-8370","서울특별시 중랑구 동일로 932, 묵동이마트 B1층 (묵동)","126.831983","37.5294984"
"305","목동7단지","02-758-8370","서울특별시 중랑구 동일로 932, 묵동이마트 B1층 (묵동)","126.87053","37.528012"
"306","목동하이페리온","02-758-8370","서울특별시 중랑구 동일로 932, 묵동이마트 B1층 (묵동)","126.870316","37.524931"
"307","목동5단지","02-758-8370","서울특별시 중랑구 동일로 932, 묵동이마트 B1층 (묵동)","126.88212","37.536706"
"308","목동","02-758-8370","서울특별시 중랑구 동일로 932, 묵동이마트 B1층 (묵동)","126.8785597","37.53638383"
"309","현대목동","02-758-8370","서울특별시 중랑구 동일로 932, 묵동이마트 B1층 (묵동)","126.875023","37.526848"
"310","목동파라곤","02-758-8370","서울특별시 중랑구 동일로 932, 묵동이마트 B1층 (묵동)","126.874996","37.52947"
"311","타임스퀘어R","02-758-8370","서울특별시 중랑구 동일로 932, 묵동이마트 B1층 (묵동)","126.903606","37.517139"
"312","샛강역","02-758-8370","서울특별시 중랑구 동일로 932, 묵동이마트 B1층 (묵동)","126.9312716","37.5183551"
"313","영등포역","02-758-8370","서울특별시 중랑구 동일로 932, 묵동이마트 B1층 (묵동)","126.9091390","37.5169614"
"314","당산대로","02-758-8370","서울특별시 중랑구 동일로 932, 묵동이마트 B1층 (묵동)","126.903804","37.533121"
"315","여의도IFC몰(L1)R","02-758-8370","서울특별시 중랑구 동일로 932, 묵동이마트 B1층 (묵동)","126.925508","37.525127"
"316","여의도KBS R","02-758-8370","서울특별시 중랑구 동일로 932, 묵동이마트 B1층 (묵동)","126.918456","37.526596"
"317","여의도화재보험","02-758-8370","서울특별시 중랑구 동일로 932, 묵동이마트 B1층 (묵동)","126.926004","37.521345"
"318","국회대로","02-758-8370","서울특별시 중랑구 동일로 932, 묵동이마트 B1층 (묵동)","126.919549","37.530260"
"319","영등포KT","02-758-8370","서울특별시 중랑구 동일로 932, 묵동이마트 B1층 (묵동)","126.904706","37.526792"
"320","여의도공원R","02-758-8370","서울특별시 중랑구 동일로 932, 묵동이마트 B1층 (묵동)","126.924872","37.529231"
"321","국회의사당역","02-758-8370","서울특별시 중랑구 동일로 932, 묵동이마트 B1층 (묵동)","126.916882","37.527831"
"322","선유도역","02-758-8370","서울특별시 중랑구 동일로 932, 묵동이마트 B1층 (묵동)","126.894594","37.537268"
"323","여의도역","02-758-8370","서울특별시 중랑구 동일로 932, 묵동이마트 B1층 (묵동)","126.923439","37.523328"
"324","선유동이레빌딩","02-758-8370","서울특별시 중랑구 동일로 932, 묵동이마트 B1층 (묵동)","126.896912","37.534109"
"325","동여의도","02-758-8370","서울특별시 중랑구 동일로 932, 묵동이마트 B1층 (묵동)","126.9317957","37.5199494"
"326","여의도ABL타워","02-758-8370","서울특별시 중랑구 동일로 932, 묵동이마트 B1층 (묵동)","126.92779","37.518749"
"327","영등포신길DT","02-758-8370","서울특별시 중랑구 동일로 932, 묵동이마트 B1층 (묵동)","126.910073","37.504566"
"328","문래역","02-758-8370","서울특별시 중랑구 동일로 932, 묵동이마트 B1층 (묵동)","126.896475","37.517428"
"329","당산","02-758-8370","서울특별시 중랑구 동일로 932, 묵동이마트 B1층 (묵동)","126.899942","37.535164"
"330","여의도한양증권","02-758-8370","서울특별시 중랑구 동일로 932, 묵동이마트 B1층 (묵동)","126.929093","37.522418"
"331","여의도일신","02-758-8370","서울특별시 중랑구 동일로 932, 묵동이마트 B1층 (묵동)","126.920103","37.528"
"332","신세계영등포B2","02-758-8370","서울특별시 중랑구 동일로 932, 묵동이마트 B1층 (묵동)","126.905608","37.517162"
"333","하이테크시티","02-758-8370","서울특별시 중랑구 동일로 932, 묵동이마트 B1층 (묵동)","126.8986474","37.51467062"
"334","당산역","02-758-8370","서울특별시 중랑구 동일로 932, 묵동이마트 B1층 (묵동)","126.90187630000002","37.5344337"
"335","서여의도","02-758-8370","서울특별시 중랑구 동일로 932, 묵동이마트 B1층 (묵동)","126.920272","37.52958977"
"336","여의도","02-758-8370","서울특별시 중랑구 동일로 932, 묵동이마트 B1층 (묵동)","126.9245179","37.52403519"
"337","롯데캐슬여의도","02-758-8370","서울특별시 중랑구 동일로 932, 묵동이마트 B1층 (묵동)","126.9263678","37.52025214"
"338","문래동","02-758-8370","서울특별시 중랑구 동일로 932, 묵동이마트 B1층 (묵동)","126.889652","37.519602"
"339","신세계영등포B","02-758-8370","서울특별시 중랑구 동일로 932, 묵동이마트 B1층 (묵동)","126.905608","37.517162"
"340","여의도호성","02-758-8370","서울특별시 중랑구 동일로 932, 묵동이마트 B1층 (묵동)","126.929426","37.520176"
"341","타임스퀘어B2","02-758-8370","서울특별시 중랑구 동일로 932, 묵동이마트 B1층 (묵동)","126.903387","37.516985"
"342","영등포본동","02-758-8370","서울특별시 중랑구 동일로 932, 묵동이마트 B1층 (묵동)","126.909559","37.518713"
"343","타임스퀘어","02-758-8370","서울특별시 중랑구 동일로 932, 묵동이마트 B1층 (묵동)","126.903387","37.516985"
"344","여의도의사당","02-758-8370","서울특별시 중랑구 동일로 932, 묵동이마트 B1층 (묵동)","126.92109","37.530023"
"345","여의도IFC(1F)","02-758-8370","서울특별시 중랑구 동일로 932, 묵동이마트 B1층 (묵동)","126.924668","37.525273"
"346","불광역","02-758-8370","서울특별시 중랑구 동일로 932, 묵동이마트 B1층 (묵동)","126.9303971","37.6093820"
"347","구파발사거리","02-758-8370","서울특별시 중랑구 동일로 932, 묵동이마트 B1층 (묵동)","126.91881","37.639617"
"348","연신내역사거리","02-758-8370","서울특별시 중랑구 동일로 932, 묵동이마트 B1층 (묵동)","126.922062","37.618620"
"349","연신내","02-758-8370","서울특별시 중랑구 동일로 932, 묵동이마트 B1층 (묵동)","126.919913","37.620417"
"350","구파발역","02-758-8370","서울특별시 중랑구 동일로 932, 묵동이마트 B1층 (묵동)","126.918881","37.63446"
"351","은평구청입구","02-758-8370","서울특별시 중랑구 동일로 932, 묵동이마트 B1층 (묵동)","126.926789","37.601042"
"352","은평이마트","02-758-8370","서울특별시 중랑구 동일로 932, 묵동이마트 B1층 (묵동)","126.9202735","37.60037923"
"353","구산역","02-758-8370","서울특별시 중랑구 동일로 932, 묵동이마트 B1층 (묵동)","126.917678","37.611745"
"354","연합뉴스","02-758-8370","서울특별시 중랑구 동일로 932, 묵동이마트 B1층 (묵동)","126.9804590000005","37.5743289"
"355","혜화역","02-758-8370","서울특별시 중랑구 동일로 932, 묵동이마트 B1층 (묵동)","127.0021850","37.5824779"
"356","경희궁로","02-758-8370","서울특별시 중랑구 동일로 932, 묵동이마트 B1층 (묵동)","126.972343","37.571759"
"357","종로평창동","02-758-8370","서울특별시 중랑구 동일로 932, 묵동이마트 B1층 (묵동)","126.967213","37.606149"
"358","광화문우체국","02-758-8370","서울특별시 중랑구 동일로 932, 묵동이마트 B1층 (묵동)","126.978083","37.569854"
"359","더종로R","02-758-8370","서울특별시 중랑구 동일로 932, 묵동이마트 B1층 (묵동)","126.983494","37.570804"
"360","독립문역","02-758-8370","서울특별시 중랑구 동일로 932, 묵동이마트 B1층 (묵동)","126.961269","37.571432"
"361","정부서울청사R","02-758-8370","서울특별시 중랑구 동일로 932, 묵동이마트 B1층 (묵동)","126.973571","37.574411"
"362","동묘앞역","02-758-8370","서울특별시 중랑구 동일로 932, 묵동이마트 B1층 (묵동)","127.016072","37.572700"
"363","종로구청","02-758-8370","서울특별시 중랑구 동일로 932, 묵동이마트 B1층 (묵동)","126.981138","37.572662"
"364","북촌로","02-758-8370","서울특별시 중랑구 동일로 932, 묵동이마트 B1층 (묵동)","126.986431","37.579462"
"365","종로수송","02-758-8370","서울특별시 중랑구 동일로 932, 묵동이마트 B1층 (묵동)","126.9807831","37.5714931"
"366","새문안로","02-758-8370","서울특별시 중랑구 동일로 932, 묵동이마트 B1층 (묵동)","126.9748903","37.5696597"
"367","안국","02-758-8370","서울특별시 중랑구 동일로 932, 묵동이마트 B1층 (묵동)","126.985635","37.577338"
"368","삼청동","02-758-8370","서울특별시 중랑구 동일로 932, 묵동이마트 B1층 (묵동)","126.9817512","37.585381"
"369","광화문D타워","02-758-8370","서울특별시 중랑구 동일로 932, 묵동이마트 B1층 (묵동)","126.9788297","37.5714"
"370","서울극장","02-758-8370","서울특별시 중랑구 동일로 932, 묵동이마트 B1층 (묵동)","126.9917911","37.56975769"
"371","적선","02-758-8370","서울특별시 중랑구 동일로 932, 묵동이마트 B1층 (묵동)","126.9739361","37.57520431"
"372","인사","02-758-8370","서울특별시 중랑구 동일로 932, 묵동이마트 B1층 (묵동)","126.98703490000002","37.5721293"
"373","영풍문고","02-758-8370","서울특별시 중랑구 동일로 932, 묵동이마트 B1층 (묵동)","126.9821243","37.5695584"
"374","광화문R","02-758-8370","서울특별시 중랑구 동일로 932, 묵동이마트 B1층 (묵동)","126.9762872","37.5712293"
"375","성대입구","02-758-8370","서울특별시 중랑구 동일로 932, 묵동이마트 B1층 (묵동)","126.998392","37.582892"
"376","스페이스본","02-758-8370","서울특별시 중랑구 동일로 932, 묵동이마트 B1층 (묵동)","126.9692494","37.57532212"
"377","주얼리시티","02-758-8370","서울특별시 중랑구 동일로 932, 묵동이마트 B1층 (묵동)","126.998705","37.57154914"
"378","종각","02-758-8370","서울특별시 중랑구 동일로 932, 묵동이마트 B1층 (묵동)","126.98452810000003","37.5699183"
"379","광교","02-758-8370","서울특별시 중랑구 동일로 932, 묵동이마트 B1층 (묵동)","126.9842163","37.568928"
"380","동숭로아트","02-758-8370","서울특별시 중랑구 동일로 932, 묵동이마트 B1층 (묵동)","127.003876","37.582969"
"381","종로관철","02-758-8370","서울특별시 중랑구 동일로 932, 묵동이마트 B1층 (묵동)","126.986013","37.569058"
"382","경복궁역","02-758-8370","서울특별시 중랑구 동일로 932, 묵동이마트 B1층 (묵동)","126.97274530000004","37.5771508"
"383","이마빌딩","02-758-8370","서울특별시 중랑구 동일로 932, 묵동이마트 B1층 (묵동)","126.97897149999994","37.5738637"
"384","대명거리","02-758-8370","서울특별시 중랑구 동일로 932, 묵동이마트 B1층 (묵동)","127.0011593","37.58349633"
"385","마로니에공원","02-758-8370","서울특별시 중랑구 동일로 932, 묵동이마트 B1층 (묵동)","127.0023412","37.58154296"
"386","종로3가","02-758-8370","서울특별시 중랑구 동일로 932, 묵동이마트 B1층 (묵동)","126.9902055","37.5705527"
"387","대학로","02-758-8370","서울특별시 중랑구 동일로 932, 묵동이마트 B1층 (묵동)","127.001449","37.576509"
"388","경복궁사거리","02-758-8370","서울특별시 중랑구 동일로 932, 묵동이마트 B1층 (묵동)","126.980581","37.575578"
"389","종로관수","02-758-8370","서울특별시 중랑구 동일로 932, 묵동이마트 B1층 (묵동)","126.988665","37.569385"
"390","숭례문북창","02-758-8370","서울특별시 중랑구 동일로 932, 묵동이마트 B1층 (묵동)","126.976838","37.561725"
"391","동대문두타","02-758-8370","서울특별시 중랑구 동일로 932, 묵동이마트 B1층 (묵동)","127.00878383484597","37.56892512604548"
"392","대한상공회의소R","02-758-8370","서울특별시 중랑구 동일로 932, 묵동이마트 B1층 (묵동)","126.973702","37.560938"
"393","명동센트럴","02-758-8370","서울특별시 중랑구 동일로 932, 묵동이마트 B1층 (묵동)","126.985233","37.564669"
"394","국립중앙의료원","02-758-8370","서울특별시 중랑구 동일로 932, 묵동이마트 B1층 (묵동)","127.0062376","37.5665160"
"395","동국대","02-758-8370","서울특별시 중랑구 동일로 932, 묵동이마트 B1층 (묵동)","126.998437","37.561542"
"396","신세계본점5F","02-758-8370","서울특별시 중랑구 동일로 932, 묵동이마트 B1층 (묵동)","126.981134","37.560951"
"397","을지로내외빌딩R","02-758-8370","서울특별시 중랑구 동일로 932, 묵동이마트 B1층 (묵동)","126.983663","37.566479"
"398","대우재단빌딩","02-758-8370","서울특별시 중랑구 동일로 932, 묵동이마트 B1층 (묵동)","126.975081","37.556781"
"399","동대문공원","02-758-8370","서울특별시 중랑구 동일로 932, 묵동이마트 B1층 (묵동)","127.007191","37.565133"
"400","을지로국제빌딩","02-758-8370","서울특별시 중랑구 동일로 932, 묵동이마트 B1층 (묵동)","126.982219","37.566952"
"401","동대입구역","02-758-8370","서울특별시 중랑구 동일로 932, 묵동이마트 B1층 (묵동)","127.006142","37.559593"
"402","신당역사거리","02-758-8370","서울특별시 중랑구 동일로 932, 묵동이마트 B1층 (묵동)","127.016430","37.565807"
"403","연세세브란스","02-758-8370","서울특별시 중랑구 동일로 932, 묵동이마트 B1층 (묵동)","126.973540","37.557207"
"404","회현역","02-758-8370","서울특별시 중랑구 동일로 932, 묵동이마트 B1층 (묵동)","126.98074670000005","37.5589809"
"405","을지로경기빌딩","02-758-8370","서울특별시 중랑구 동일로 932, 묵동이마트 B1층 (묵동)","126.983156","37.567172"
"406","을지로2가","02-758-8370","서울특별시 중랑구 동일로 932, 묵동이마트 B1층 (묵동)","126.988066","37.566347"
"407","신세계본점6F","02-758-8370","서울특별시 중랑구 동일로 932, 묵동이마트 B1층 (묵동)","126.980758","37.560381"
"408","서울중앙우체국","02-758-8370","서울특별시 중랑구 동일로 932, 묵동이마트 B1층 (묵동)","126.982117","37.561678"
"409","한국프레스센터","02-758-8370","서울특별시 중랑구 동일로 932, 묵동이마트 B1층 (묵동)","126.977859","37.567381"
"410","명동중앙로","02-758-8370","서울특별시 중랑구 동일로 932, 묵동이마트 B1층 (묵동)","126.9857723","37.5637485"
"411","약수역","02-758-8370","서울특별시 중랑구 동일로 932, 묵동이마트 B1층 (묵동)","127.0107253","37.555437"
"412","중구저동","02-758-8370","서울특별시 중랑구 동일로 932, 묵동이마트 B1층 (묵동)","126.9903382","37.5643686"
"413","명동길","02-758-8370","서울특별시 중랑구 동일로 932, 묵동이마트 B1층 (묵동)","126.9858669","37.5620695"
"414","소공로북창","02-758-8370","서울특별시 중랑구 동일로 932, 묵동이마트 B1층 (묵동)","126.9789237","37.5636856"
"415","서소문로","02-758-8370","서울특별시 중랑구 동일로 932, 묵동이마트 B1층 (묵동)","126.974546","37.563006"
"416","신당역","02-758-8370","서울특별시 중랑구 동일로 932, 묵동이마트 B1층 (묵동)","127.014554","37.565522"
"417","명동메트로","02-758-8370","서울특별시 중랑구 동일로 932, 묵동이마트 B1층 (묵동)","126.983681","37.565118"
"418","숭례문","02-758-8370","서울특별시 중랑구 동일로 932, 묵동이마트 B1층 (묵동)","126.9730952","37.55874473"
"419","순화동더샵","02-758-8370","서울특별시 중랑구 동일로 932, 묵동이마트 B1층 (묵동)","126.971931","37.560072"
"420","대한극장","02-758-8370","서울특별시 중랑구 동일로 932, 묵동이마트 B1층 (묵동)","126.9952735","37.56105065"
"421","소공동","02-758-8370","서울특별시 중랑구 동일로 932, 묵동이마트 B1층 (묵동)","126.979157","37.564448"
"422","무교동","02-758-8370","서울특별시 중랑구 동일로 932, 묵동이마트 B1층 (묵동)","126.978738","37.56781712"
"423","문화일보","02-758-8370","서울특별시 중랑구 동일로 932, 묵동이마트 B1층 (묵동)","126.9686642","37.56712291"
"424","태평로","02-758-8370","서울특별시 중랑구 동일로 932, 묵동이마트 B1층 (묵동)","126.9767928","37.56248285"
"425","퍼시픽타워","02-758-8370","서울특별시 중랑구 동일로 932, 묵동이마트 B1층 (묵동)","126.9730264","37.56132157"
"426","남산단암","02-758-8370","서울특별시 중랑구 동일로 932, 묵동이마트 B1층 (묵동)","126.9754585","37.55853622"
"427","황학캐슬","02-758-8370","서울특별시 중랑구 동일로 932, 묵동이마트 B1층 (묵동)","127.022905","37.57124"
"428","서소문","02-758-8370","서울특별시 중랑구 동일로 932, 묵동이마트 B1층 (묵동)","126.97551290000001","37.5633773"
"429","명동미래","02-758-8370","서울특별시 중랑구 동일로 932, 묵동이마트 B1층 (묵동)","126.984487","37.564064"
"430","을지로삼화타워","02-758-8370","서울특별시 중랑구 동일로 932, 묵동이마트 B1층 (묵동)","126.984707","37.566902"
"431","소공로","02-758-8370","서울특별시 중랑구 동일로 932, 묵동이마트 B1층 (묵동)","126.98076809999998","37.5637273"
"432","서소문배재","02-758-8370","서울특별시 중랑구 동일로 932, 묵동이마트 B1층 (묵동)","126.97216639999999","37.5628481"
"433","을지로한국빌딩","02-758-8370","서울특별시 중랑구 동일로 932, 묵동이마트 B1층 (묵동)","126.98329","37.565722"
"434","순화동에이스","02-758-8370","서울특별시 중랑구 동일로 932, 묵동이마트 B1층 (묵동)","126.969144","37.563528"
"435","시청","02-758-8370","서울특별시 중랑구 동일로 932, 묵동이마트 B1층 (묵동)","126.979808","37.566290"
"436","시청플러스","02-758-8370","서울특별시 중랑구 동일로 932, 묵동이마트 B1층 (묵동)","126.980055","37.566338"
"437","충무로역","02-758-8370","서울특별시 중랑구 동일로 932, 묵동이마트 B1층 (묵동)","126.993864","37.561499"
"438","명동역","02-758-8370","서울특별시 중랑구 동일로 932, 묵동이마트 B1층 (묵동)","126.983095","37.560832"
"439","남산스테이트","02-758-8370","서울특별시 중랑구 동일로 932, 묵동이마트 B1층 (묵동)","126.982791","37.560205"
"440","명동입구","02-758-8370","서울특별시 중랑구 동일로 932, 묵동이마트 B1층 (묵동)","126.982242","37.563319"
"441","명일역","02-758-8370","서울특별시 중랑구 동일로 932, 묵동이마트 B1층 (묵동)","127.143799","37.552580"
"442","강동구청DT","02-758-8370","서울특별시 중랑구 동일로 932, 묵동이마트 B1층 (묵동)","127.123835","37.529437"
"443","강동암사DT","02-758-8370","서울특별시 중랑구 동일로 932, 묵동이마트 B1층 (묵동)","127.130065","37.555054"
"444","강동역","02-758-8370","서울특별시 중랑구 동일로 932, 묵동이마트 B1층 (묵동)","127.133086","37.536047"
"445","둔촌동","02-758-8370","서울특별시 중랑구 동일로 932, 묵동이마트 B1층 (묵동)","127.133943","37.522724"
"446","천호로데오","02-758-8370","서울특별시 중랑구 동일로 932, 묵동이마트 B1층 (묵동)","127.12730940000006","37.5378069"
"447","천호이마트","02-758-8370","서울특별시 중랑구 동일로 932, 묵동이마트 B1층 (묵동)","127.125214","37.538933"
"448","길동역","02-758-8370","서울특별시 중랑구 동일로 932, 묵동이마트 B1층 (묵동)","127.1399879","37.5387433"
"449","상일동","02-758-8370","서울특별시 중랑구 동일로 932, 묵동이마트 B1층 (묵동)","127.174258","37.550072"
"450","올림픽공원북문","02-758-8370","서울특별시 중랑구 동일로 932, 묵동이마트 B1층 (묵동)","127.125932","37.525403"
"451","천호역","02-758-8370","서울특별시 중랑구 동일로 932, 묵동이마트 B1층 (묵동)","127.1245793","37.53795191"
"452","명일이마트","02-758-8370","서울특별시 중랑구 동일로 932, 묵동이마트 B1층 (묵동)","127.155984","37.553991"
"453","길동사거리","02-758-8370","서울특별시 중랑구 동일로 932, 묵동이마트 B1층 (묵동)","127.13839510000002","37.5346536"
"454","신도림","02-758-8370","서울특별시 중랑구 동일로 932, 묵동이마트 B1층 (묵동)","126.883953","37.505517"
"455","구로디지털타워","02-758-8370","서울특별시 중랑구 동일로 932, 묵동이마트 B1층 (묵동)","126.896480","37.483432"
"456","오류동역","02-758-8370","서울특별시 중랑구 동일로 932, 묵동이마트 B1층 (묵동)","126.8448614","37.4962155"
"457","구로디지털로","02-758-8370","서울특별시 중랑구 동일로 932, 묵동이마트 B1층 (묵동)","126.895587","37.485911"
"458","신세계아이앤씨","02-758-8370","서울특별시 중랑구 동일로 932, 묵동이마트 B1층 (묵동)","126.8916127","37.48587904"
"459","구로에이스","02-758-8370","서울특별시 중랑구 동일로 932, 묵동이마트 B1층 (묵동)","126.8944957","37.48448329"
"460","구로하이엔드","02-758-8370","서울특별시 중랑구 동일로 932, 묵동이마트 B1층 (묵동)","126.893136","37.481618"
"461","현대디큐브2F","02-758-8370","서울특별시 중랑구 동일로 932, 묵동이마트 B1층 (묵동)","126.889225","37.508636"
"462","구로호텔","02-758-8370","서울특별시 중랑구 동일로 932, 묵동이마트 B1층 (묵동)","126.89885909999998","37.4831293"
"463","현대디큐브B2","02-758-8370","서울특별시 중랑구 동일로 932, 묵동이마트 B1층 (묵동)","126.889488","37.508828"
"464","답십리역","02-758-8370","서울특별시 중랑구 동일로 932, 묵동이마트 B1층 (묵동)","127.051106","37.568466"
"465","경희대삼거리","02-758-8370","서울특별시 중랑구 동일로 932, 묵동이마트 B1층 (묵동)","127.052017","37.591531"
"466","외대정문","02-758-8370","서울특별시 중랑구 동일로 932, 묵동이마트 B1층 (묵동)","127.0590302","37.5953464"
"467","신설동역","02-758-8370","서울특별시 중랑구 동일로 932, 묵동이마트 B1층 (묵동)","127.0255446","37.5767228"
"468","회기역사거리","02-758-8370","서울특별시 중랑구 동일로 932, 묵동이마트 B1층 (묵동)","127.056098","37.590784"
"469","외대","02-758-8370","서울특별시 중랑구 동일로 932, 묵동이마트 B1층 (묵동)","127.0614002","37.59575188"
"470","장한평역","02-758-8370","서울특별시 중랑구 동일로 932, 묵동이마트 B1층 (묵동)","127.065511","37.562337"
"471","경희대","02-758-8370","서울특별시 중랑구 동일로 932, 묵동이마트 B1층 (묵동)","127.05280849999997","37.5928812"
"472","뚝섬역","02-758-8370","서울특별시 중랑구 동일로 932, 묵동이마트 B1층 (묵동)","127.049042","37.546432"
"473","황학사거리","02-758-8370","서울특별시 중랑구 동일로 932, 묵동이마트 B1층 (묵동)","127.023697","37.567644"
"474","성수역","02-758-8370","서울특별시 중랑구 동일로 932, 묵동이마트 B1층 (묵동)","127.056943","37.543193"
"475","상왕십리역","02-758-8370","서울특별시 중랑구 동일로 932, 묵동이마트 B1층 (묵동)","127.027907","37.565169"
"476","왕십리역","02-758-8370","서울특별시 중랑구 동일로 932, 묵동이마트 B1층 (묵동)","127.0339072","37.5627541"
"477","엔터식스한양대","02-758-8370","서울특별시 중랑구 동일로 932, 묵동이마트 B1층 (묵동)","127.04002","37.5570379"
"478","한양대","02-758-8370","서울특별시 중랑구 동일로 932, 묵동이마트 B1층 (묵동)","127.0421649","37.55726984"
"479","엔터식스","02-758-8370","서울특별시 중랑구 동일로 932, 묵동이마트 B1층 (묵동)","127.0383328","37.56175811"
"480","성수이마트","02-758-8370","서울특별시 중랑구 동일로 932, 묵동이마트 B1층 (묵동)","127.0530083","37.5396996"
"481","이태원역","02-758-8370","서울특별시 중랑구 동일로 932, 묵동이마트 B1층 (묵동)","126.994789","37.534273"
"482","한강진역R","02-758-8370","서울특별시 중랑구 동일로 932, 묵동이마트 B1층 (묵동)","127.000980","37.537131"
"483","용산역써밋R","02-758-8370","서울특별시 중랑구 동일로 932, 묵동이마트 B1층 (묵동)","126.965401","37.527586"
"484","이촌","02-758-8370","서울특별시 중랑구 동일로 932, 묵동이마트 B1층 (묵동)","126.977271","37.518605"
"485","신용산역","02-758-8370","서울특별시 중랑구 동일로 932, 묵동이마트 B1층 (묵동)","126.966757","37.528702"
"486","용산파크타워","02-758-8370","서울특별시 중랑구 동일로 932, 묵동이마트 B1층 (묵동)","126.970389","37.523818"
"487","남영동","02-758-8370","서울특별시 중랑구 동일로 932, 묵동이마트 B1층 (묵동)","126.972242","37.542831"
"488","한남동R","02-758-8370","서울특별시 중랑구 동일로 932, 묵동이마트 B1층 (묵동)","127.010919","37.534850"
"489","서울타워","02-758-8370","서울특별시 중랑구 동일로 932, 묵동이마트 B1층 (묵동)","126.988317","37.551102"
"490","서울역동자동","02-758-8370","서울특별시 중랑구 동일로 932, 묵동이마트 B1층 (묵동)","126.972694","37.551752"
"491","이태원거리","02-758-8370","서울특별시 중랑구 동일로 932, 묵동이마트 B1층 (묵동)","126.99756","37.534988"
"492","순천향입구","02-758-8370","서울특별시 중랑구 동일로 932, 묵동이마트 B1층 (묵동)","127.00563","37.533394"
"493","숙대","02-758-8370","서울특별시 중랑구 동일로 932, 묵동이마트 B1층 (묵동)","126.9672252","37.54460479"
"494","동빙고","02-758-8370","서울특별시 중랑구 동일로 932, 묵동이마트 B1층 (묵동)","126.991782","37.5289857"
"495","숙대입구역","02-758-8370","서울특별시 중랑구 동일로 932, 묵동이마트 B1층 (묵동)","126.971891","37.544118"
"496","용산아이파크몰","02-758-8370","서울특별시 중랑구 동일로 932, 묵동이마트 B1층 (묵동)","126.96404469999993","37.5288539"
"497","동부이촌동","02-758-8370","서울특별시 중랑구 동일로 932, 묵동이마트 B1층 (묵동)","126.96905","37.52111"
"498","상봉","02-758-8370","서울특별시 중랑구 동일로 932, 묵동이마트 B1층 (묵동)","127.092509","37.597842"
"499","중랑역","02-758-8370","서울특별시 중랑구 동일로 932, 묵동이마트 B1층 (묵동)","127.07473579999998","37.5930326"
"500","중랑구청","02-758-8370","서울특별시 중랑구 동일로 932, 묵동이마트 B1층 (묵동)","127.0957558","37.60538908"
"501","사가정역","02-758-8370","서울특별시 중랑구 동일로 932, 묵동이마트 B1층 (묵동)","127.087966","37.579594"
"502","상봉역","02-758-8370","서울특별시 중랑구 동일로 932, 묵동이마트 B1층 (묵동)","127.08647","37.59689"
"503","묵동이마트","02-758-8370","서울특별시 중랑구 동일로 932, 묵동이마트 B1층 (묵동)","127.077484","37.613433"
